ZHUHAI-1 02 (CAS-4B)    
1 42759U 17034B   23142.77733500  .00010867  00000+0  54925-3 0  9995
2 42759  43.0155 256.9019 0011858 295.7578  64.2045 15.17047589327779
ZHUHAI-1 01 (CAS-4A)    
1 42761U 17034D   23142.79353174  .00008470  00000+0  43062-3 0  9992
2 42761  43.0152 255.3448 0012666 297.1769  62.7787 15.17059867327783
MAX VALIER SAT          
1 42778U 17036P   23142.66685620  .00024503  00000+0  66116-3 0  9992
2 42778  97.1571 178.1312 0008955 177.9286 182.1998 15.37733971328805
RADFXSAT (FOX-1B)       
1 43017U 17073E   23142.93364258  .00006218  00000+0  43657-3 0  9999
2 43017  97.6333  28.2748 0235173 152.3285 209.0681 14.85749100297436
FOX-1D (AO-92)          
1 43137U 18004AC  23142.68389804  .00035456  00000+0  76644-3 0  9991
2 43137  97.3293 221.6320 0005658 214.5313 145.5569 15.44404181298378
DIWATA-2B               
1 43678U 18084H   23143.12960038  .00001955  00000+0  19208-3 0  9993
2 43678  98.0196 286.6005 0008469 240.1347 119.9031 14.93347969248528
ES'HAIL 2               
1 43700U 18090A   23142.89459088  .00000147  00000+0  00000+0 0  9995
2 43700   0.0148 330.4904 0001266 120.9181 136.6772  1.00270672 16430
FOX-1CLIFF (AO-95)      
1 43770U 18099N   23142.13759348  .00006521  00000+0  53353-3 0  9995
2 43770  97.5770 204.3796 0011026 211.9733 148.0822 14.99614720243709
ITASAT 1                
1 43786U 18099AE  23143.13554093  .00005339  00000+0  44082-3 0  9998
2 43786  97.5796 206.3823 0012600 196.6611 163.4200 14.99327837243891
JY1SAT (JO-97)          
1 43803U 18099AX  23142.91132409  .00006490  00000+0  51798-3 0  9997
2 43803  97.5686 206.1344 0012487 177.5498 182.5789 15.00558081243905
UWE-4                   
1 43880U 18111E   23142.70915846  .00005580  00000+0  43015-3 0  9990
2 43880  97.6343  48.2980 0015632 257.9972 101.9500 15.01919636240548
NEXUS (FO-99)           
1 43937U 19003F   23142.81975722  .00053775  00000+0  94087-3 0  9999
2 43937  97.0881 170.3845 0011898  20.4998 339.6729 15.50379638242114
JAISAT-1                
1 44419U 19038F   23142.51874487  .00025670  00000+0  90417-3 0  9992
2 44419  97.6734 123.4099 0016267  41.7571 318.4906 15.29161845214612
DUCHIFAT-3              
1 44854U 19089C   23142.68203896  .00008765  00000+0  59573-3 0  9993
2 44854  36.9617 243.6736 0008296 110.6638 249.4996 15.05894180189057
CAS-6 (TIANQIN 1)       
1 44881U 19093C   23143.18881763  .00001264  00000+0  16382-3 0  9997
2 44881  97.8616 222.0657 0015390 154.8842 205.3123 14.82483374185091
RS-44 & BREEZE-KM R/B   
1 44909U 19096E   23142.89125592  .00000017  00000+0  30857-4 0  9998
2 44909  82.5236   4.7579 0216407 246.0285 111.8023 12.79720691158928
BY70-2                  
1 45857U 20042B   23143.16155047  .00019562  00000+0  20480-2 0  9997
2 45857  97.9250 222.9917 0010189  96.8342 263.4034 14.89601007155814
SALSAT                  
1 46495U 20068K   23142.63426118  .00004480  00000+0  29857-3 0  9996
2 46495  97.7692  90.3746 0014838 200.1340 159.9304 15.07521879145223
RADFXSAT-2 (AO-109)     
1 47311U 21002C   23142.76531714  .00025004  00000+0  67067-3 0  9996
2 47311  60.6792 156.1787 0016347 160.6833 199.4884 15.37800805130375
UVSQ-SAT                
1 47438U 21006AB  23143.14687740  .00016096  00000+0  67181-3 0  9992
2 47438  97.3856 200.6254 0010949 162.4978 197.6638 15.23683947128835
DIY-1 (ARDUIQUBE)       
1 47963U 21022AH  23142.67653535  .00176558  00000+0  28252-2 0  9990
2 47963  97.4987  50.0175 0009848  68.6517 291.5785 15.52453961118621
XW-3 (CAS-9)            
1 50466U 21131B   23143.13632545  .00000691  00000+0  23867-3 0  9995
2 50466  98.5515 224.7595 0003879 198.2372 161.8677 14.38890239 73754
TEVEL-3                 
1 50988U 22002E   23143.10790583  .00019731  00000+0  81058-3 0  9997
2 50988  97.4340 210.2602 0006317 328.6073  31.4787 15.24212176 74943
TEVEL-8                 
1 50989U 22002F   23143.12557746  .00020565  00000+0  84627-3 0  9994
2 50989  97.4356 210.3342 0006370 326.9002  33.1836 15.24147629 74949
TEVEL-5                 
1 50998U 22002Q   23143.13135515  .00022168  00000+0  88875-3 0  9991
2 50998  97.4333 210.6383 0007466 320.1536  39.9153 15.25001501 74975
TEVEL-6                 
1 50999U 22002R   23143.12987619  .00022206  00000+0  89027-3 0  9994
2 50999  97.4333 210.6319 0007477 319.9713  40.0973 15.25001199 74976
TEVEL-1                 
1 51013U 22002AF  23143.11696593  .00020512  00000+0  84356-3 0  9997
2 51013  97.4335 210.2157 0006237 327.8971  32.1886 15.24169173 74947
TEVEL-7                 
1 51062U 22002CG  23143.12684888  .00020739  00000+0  85300-3 0  9997
2 51062  97.4352 210.3093 0006330 326.1826  33.9007 15.24163317 74943
TEVEL-4                 
1 51063U 22002CH  23143.13210858  .00020871  00000+0  85962-3 0  9992
2 51063  97.4351 210.2998 0006328 326.2576  33.8258 15.24114958 74940
TEVEL-2                 
1 51069U 22002CP  23143.10975663  .00020334  00000+0  83518-3 0  9996
2 51069  97.4337 210.2345 0006280 328.0125  32.0731 15.24213282 74940
GREENCUBE               
1 53106U 22080B   23139.88081682 -.00000003  00000+0  00000+0 0  9998
2 53106  70.1627 329.5611 0008345 191.2921 168.7552  6.42557176 19931
RS29S (SXC3-2110 CYCLO*)
1 53373U 22096D   23143.09333335  .00033711  00000+0  91362-3 0  9990
2 53373  97.4156  49.1261 0002142 107.8930 252.2548 15.37574690 43838
RS32S (SXC3-212 MONITO*)
1 53374U 22096E   23143.11437985  .00030114  00000+0  83705-3 0  9996
2 53374  97.4136  49.0637 0002148 123.5168 236.6282 15.36811392 43830
RS34S (SXC3-218 KUZBAS*)
1 53375U 22096F   23143.10537391  .00025024  00000+0  73618-3 0  9994
2 53375  97.4161  48.8077 0002090 122.9142 237.2303 15.35069390 43816
RS23S (SXC3-21 UTMN)    
1 53376U 22096G   23143.07110096  .00026043  00000+0  75394-3 0  9995
2 53376  97.4156  48.8479 0002081 113.6384 246.5078 15.35567388 43814
RS28S (SXC3-214 MIET-A*)
1 53377U 22096H   23143.10909396  .00022583  00000+0  67142-3 0  9996
2 53377  97.4165  48.8083 0002001 125.0948 235.0483 15.34757569 43815
RS26S (KAI-1)           
1 53378U 22096J   23143.06024692  .00019683  00000+0  61058-3 0  9996
2 53378  97.4180  48.5800 0002077 123.4991 236.6450 15.33438048 43795
RS19S (SXC3-219 ISOI)   
1 53381U 22096M   23143.06968936  .00020611  00000+0  59835-3 0  9991
2 53381  97.4156  48.9978 0005145 127.3915 232.7798 15.35516822 43825
RS21S (CUBESX-HSE-2)    
1 53383U 22096P   23143.11435793  .00024946  00000+0  71459-3 0  9990
2 53383  97.4159  49.1009 0005568 129.0806 231.0933 15.35895511 43834
RS30S (SXC3-217 SIREN)  
1 53384U 22096Q   23143.05745123  .00021412  00000+0  64078-3 0  9999
2 53384  97.4171  48.8818 0005554 127.5196 232.6553 15.34548925 43819
RS20S (GEOSCAN-EDELVEIS)
1 53385U 22096R   23143.08457576  .00035012  00000+0  90402-3 0  9996
2 53385  97.4151  49.5789 0005956 126.5937 233.5857 15.39045709 43893
RS33S (SXC3-215 VIZARD) 
1 53386U 22096S   23143.12008805  .00039620  00000+0  91910-3 0  9993
2 53386  97.4147  50.1383 0006730 126.2763 233.9107 15.42267904 43925
CAS-5A (FO-118)         
1 54684U 22167C   23143.08948370  .00011747  00000+0  65755-3 0  9997
2 54684  97.5597 280.8547 0014486  65.5525 294.7215 15.13508392 24885
